*******************************************************************************
 Revised: September 28, 2017           Jupiter                              599
 
 PHYSICAL DATA (updated 2018-Aug-15):
  Mass x10^24 (kg)      = 1898.13+-.19    Density (g/cm^3)       =   1.326
  Equat. radius (1 bar) = 71492+-4 km     Polar radius (km)      =  66854+-10
  Vol. Mean Radius (km) = 69911+-6        Flattening             =   0.06487
  Geometric Albedo      = 0.52            Rocky core mass (Mc/M) =  0.0261
  Sid. rot. period (III)= 9h 55m 29.71 s  Sid. rot. rate (rad/s) =  0.00017585 
  Mean solar day, hrs   = ~9.9259         
  GM (km^3/s^2)         = 126686534.911   GM 1-sigma (km^3/s^2)  =  +-1.5
  Equ. grav, ge (m/s^2) = 24.79           Pol. grav, gp (m/s^2)  =  28.34
  Vis. magnitude V(1,0) = -9.40
  Vis. mag. (opposition)= -2.70           Obliquity to orbit     =  3.13 deg
  Sidereal orbit period = 11.861982204 y  Sidereal orbit period  = 4332.589 d
  Mean daily motion     = 0.0831294 deg/d Mean orbit speed, km/s = 13.0697
  Atmos. temp. (1 bar)  = 165+-5 K        Escape speed, km/s    =  59.5           
  A_roche(ice)/Rp       =  2.76           Hill's sphere rad. Rp  = 740
                                 Perihelion   Aphelion     Mean
  Solar Constant (W/m^2)         56           46           51
  Maximum Planetary IR (W/m^2)   13.7         13.4         13.6
  Minimum Planetary IR (W/m^2)   13.7         13.4         13.6
*******************************************************************************
 
 
*******************************************************************************
Ephemeris / WWW_USER Fri Nov  9 15:33:04 2018 Pasadena, USA      / Horizons    
*******************************************************************************
Target body name: Jupiter (599)                   {source: jup341}
Center body name: Earth (399)                     {source: DE431mx}
Center-site name: GEOCENTRIC
*******************************************************************************
Start time      : A.D. 2014-Apr-08 00:00:00.0000 UT      
Stop  time      : A.D. 2014-Apr-10 00:00:00.0000 UT      
Step-size       : 5 minutes
*******************************************************************************
Target pole/equ : IAU_JUPITER                     {West-longitude positive}
Target radii    : 71492.0 x 71492.0 x 66854.0 km  {Equator, meridian, pole}    
Center geodetic : 0.00000000,0.00000000,0.0000000 {E-lon(deg),Lat(deg),Alt(km)}
Center cylindric: 0.00000000,0.00000000,0.0000000 {E-lon(deg),Dxy(km),Dz(km)}
Center pole/equ : High-precision EOP model        {East-longitude positive}
Center radii    : 6378.1 x 6378.1 x 6356.8 km     {Equator, meridian, pole}    
Target primary  : Sun
Vis. interferer : MOON (R_eq= 1737.400) km        {source: DE431mx}
Rel. light bend : Sun, EARTH                      {source: DE431mx}
Rel. lght bnd GM: 1.3271E+11, 3.9860E+05 km^3/s^2                              
Atmos refraction: NO (AIRLESS)
RA format       : DEG
Time format     : CAL 
EOP file        : eop.181108.p190130                                           
EOP coverage    : DATA-BASED 1962-JAN-20 TO 2018-NOV-08. PREDICTS-> 2019-JAN-29
Units conversion: 1 au= 149597870.700 km, c= 299792.458 km/s, 1 day= 86400.0 s 
Table cut-offs 1: Elevation (-90.0deg=NO ),Airmass (>38.000=NO), Daylight (NO )
Table cut-offs 2: Solar elongation (  0.0,180.0=NO ),Local Hour Angle( 0.0=NO )
Table cut-offs 3: RA/DEC angular rate (     0.0=NO )                           
**************************************************************************************************************************************
 Date__(UT)__HR:MN:SC.fff     R.A._(ICRF/J2K)_DEC Ang-diam Ob-lon Ob-lat Sl-lon Sl-lat   NP.ang   NP.dist            delta      deldot
**************************************************************************************************************************************
$$SOE
 2014-Apr-09 05:20:00.000     103.08899  23.17462 37.50661 247.21   1.77 236.26   1.46   6.4982     17.53 5.25628989725424  27.7165222
 2014-Apr-09 05:25:00.000     103.08937  23.17460 37.50622 250.24   1.77 239.28   1.46   6.4984     17.53 5.25634547945290  27.7163271
 2014-Apr-09 05:30:00.000     103.08975  23.17457 37.50582 253.26   1.77 242.30   1.46   6.4985     17.53 5.25640106126030  27.7161321
 2014-Apr-09 05:35:00.000     103.09013  23.17454 37.50542 256.28   1.77 245.32   1.46   6.4987     17.53 5.25645664267655  27.7159370
 2014-Apr-09 05:40:00.000     103.09051  23.17451 37.50503 259.30   1.77 248.35   1.46   6.4988     17.53 5.25651222370174  27.7157420
 2014-Apr-09 05:45:00.000     103.09090  23.17448 37.50463 262.32   1.77 251.37   1.46   6.4990     17.53 5.25656780433595  27.7155471
 2014-Apr-09 05:50:00.000     103.09128  23.17446 37.50423 265.35   1.77 254.39   1.46   6.4991     17.53 5.25662338457930  27.7153522
 2014-Apr-09 05:55:00.000     103.09166  23.17443 37.50384 268.37   1.77 257.41   1.46   6.4993     17.53 5.25667896443188  27.7151574
 2014-Apr-09 06:00:00.000     103.09204  23.17440 37.50344 271.39   1.77 260.44   1.46   6.4995     17.53 5.25673454389378  27.7149626
 2014-Apr-09 06:05:00.000     103.09242  23.17437 37.50304 274.41   1.77 263.46   1.46   6.4996     17.53 5.25679012296511  27.7147679
 2014-Apr-09 06:10:00.000     103.09280  23.17434 37.50265 277.43   1.77 266.48   1.46   6.4998     17.53 5.25684570164596  27.7145732
 2014-Apr-09 06:15:00.000     103.09318  23.17431 37.50225 280.46   1.77 269.50   1.46   6.4999     17.53 5.25690127993643  27.7143785
 2014-Apr-09 06:20:00.000     103.09356  23.17429 37.50186 283.48   1.77 272.52   1.46   6.5001     17.53 5.25695685783665  27.7141840
 2014-Apr-09 06:25:00.000     103.09394  23.17426 37.50146 286.50   1.77 275.55   1.46   6.5003     17.53 5.25701243534670  27.7139894
 2014-Apr-09 06:30:00.000     103.09432  23.17423 37.50106 289.52   1.77 278.57   1.46   6.5004     17.53 5.25706801246669  27.7137950
 2014-Apr-09 06:35:00.000     103.09470  23.17420 37.50067 292.55   1.77 281.59   1.46   6.5006     17.53 5.25712358919673  27.7136005
 2014-Apr-09 06:40:00.000     103.09508  23.17417 37.50027 295.57   1.77 284.61   1.46   6.5007     17.53 5.25717916553693  27.7134062
 2014-Apr-09 06:45:00.000     103.09546  23.17414 37.49987 298.59   1.77 287.63   1.46   6.5009     17.53 5.25723474148739  27.7132118
 2014-Apr-09 06:50:00.000     103.09584  23.17412 37.49948 301.61   1.77 290.66   1.46   6.5011     17.52 5.25729031704821  27.7130176
 2014-Apr-09 06:55:00.000     103.09622  23.17409 37.49908 304.63   1.77 293.68   1.46   6.5012     17.52 5.25734589221953  27.7128234
 2014-Apr-09 07:00:00.000     103.09661  23.17406 37.49868 307.66   1.77 296.70   1.46   6.5014     17.52 5.25740146700145  27.7126292
 2014-Apr-09 07:05:00.000     103.09699  23.17403 37.49829 310.68   1.77 299.72   1.46   6.5015     17.52 5.25745704139407  27.7124351
 2014-Apr-09 07:10:00.000     103.09737  23.17400 37.49789 313.70   1.77 302.75   1.46   6.5017     17.52 5.25751261539752  27.7122411
 2014-Apr-09 07:15:00.000     103.09775  23.17397 37.49749 316.72   1.77 305.77   1.46   6.5019     17.52 5.25756818901190  27.7120471
 2014-Apr-09 07:20:00.000     103.09813  23.17395 37.49710 319.74   1.77 308.79   1.46   6.5020     17.52 5.25762376223732  27.7118532
 2014-Apr-09 07:25:00.000     103.09851  23.17392 37.49670 322.77   1.77 311.81   1.46   6.5022     17.52 5.25767933507390  27.7116593
 2014-Apr-09 07:30:00.000     103.09889  23.17389 37.49631 325.79   1.77 314.83   1.46   6.5023     17.52 5.25773490752178  27.7114655
 2014-Apr-09 07:35:00.000     103.09927  23.17386 37.49591 328.81   1.77 317.86   1.46   6.5025     17.52 5.25779047958104  27.7112718
 2014-Apr-09 07:40:00.000     103.09965  23.17383 37.49551 331.83   1.77 320.88   1.46   6.5026     17.52 5.25784605125182  27.7110781
 2014-Apr-09 07:45:00.000     103.10004  23.17380 37.49512 334.85   1.77 323.90   1.46   6.5028     17.52 5.25790162253423  27.7108845
 2014-Apr-09 07:50:00.000     103.10042  23.17378 37.49472 337.88   1.77 326.92   1.46   6.5030     17.52 5.25795719342839  27.7106909
 2014-Apr-09 07:55:00.000     103.10080  23.17375 37.49432 340.90   1.77 329.94   1.46   6.5031     17.52 5.25801276393440  27.7104974
 2014-Apr-09 08:00:00.000     103.10118  23.17372 37.49393 343.92   1.77 332.97   1.46   6.5033     17.52 5.25806833405241  27.7103039
 2014-Apr-09 08:05:00.000     103.10156  23.17369 37.49353 346.94   1.77 335.99   1.46   6.5034     17.52 5.25812390378253  27.7101105
 2014-Apr-09 08:10:00.000     103.10194  23.17366 37.49314 349.96   1.77 339.01   1.46   6.5036     17.52 5.25817947312487  27.7099172
 2014-Apr-09 08:15:00.000     103.10232  23.17363 37.49274 352.99   1.77 342.03   1.46   6.5038     17.52 5.25823504207956  27.7097239
 2014-Apr-09 08:20:00.000     103.10270  23.17361 37.49234 356.01   1.77 345.06   1.46   6.5039     17.52 5.25829061064671  27.7095307
 2014-Apr-09 08:25:00.000     103.10309  23.17358 37.49195 359.03   1.77 348.08   1.46   6.5041     17.52 5.25834617882645  27.7093375
 2014-Apr-09 08:30:00.000     103.10347  23.17355 37.49155   2.05   1.77 351.10   1.46   6.5042     17.52 5.25840174661889  27.7091444
 2014-Apr-09 08:35:00.000     103.10385  23.17352 37.49115   5.07   1.77 354.12   1.46   6.5044     17.52 5.25845731402416  27.7089514
 2014-Apr-09 08:40:00.000     103.10423  23.17349 37.49076   8.10   1.77 357.14   1.46   6.5046     17.52 5.25851288104239  27.7087584
 2014-Apr-09 08:45:00.000     103.10461  23.17346 37.49036  11.12   1.77   0.17   1.46   6.5047     17.52 5.25856844767369  27.7085655
 2014-Apr-09 08:50:00.000     103.10499  23.17344 37.48997  14.14   1.77   3.19   1.46   6.5049     17.52 5.25862401391817  27.7083727
 2014-Apr-09 08:55:00.000     103.10538  23.17341 37.48957  17.16   1.77   6.21   1.46   6.5050     17.52 5.25867957977598  27.7081799
